BEESAT-1                
1 35933U 09051C   26185.70190184  .00001172  00000+0  24485-3 0  9996
2 35933  98.3947  93.4931 0005441 158.6227 201.5202 14.61750705891746
ITUPSAT1                
1 35935U 09051E   26185.70814032  .00001186  00000+0  25471-3 0  9994
2 35935  98.4031  92.6727 0007316 174.2685 185.8600 14.60469280891292
XIWANG-1 (HOPE-1)       
1 36122U 09072B   26186.25567351 -.00000285  00000+0 -63100-3 0  9998
2 36122 100.4037 139.8001 0007266 187.7051 172.3951 13.16438328795382
O/OREOS (USA 219)       
1 37224U 10062C   26186.00964580  .00003431  00000+0  32832-3 0  9993
2 37224  71.9706  39.9659 0013360  25.4011 334.7814 14.93824417119304
JUGNU                   
1 37839U 11058B   26186.22754291  .00000433  00000+0  86432-4 0  9996
2 37839  19.9587 198.8255 0018340 275.6943 166.0732 14.13781436761581
SRMSAT                  
1 37841U 11058D   26185.67445854  .00000423  00000+0  85792-4 0  9996
2 37841  19.9730 313.6268 0011851  36.6009 351.4175 14.11579530760299
STRAND-1                
1 39090U 13009E   26185.94874964  .00000402  00000+0  14932-3 0  9994
2 39090  98.3930   5.7465 0008799 169.9743 190.1621 14.37174843699617
ZACUBE-1 (TSHEPISOSAT)  
1 39417U 13066B   26185.93716864  .00005365  00000+0  41369-3 0  9990
2 39417  97.8032 148.3633 0043236 188.1764 171.8761 15.01294497683398
GOMX-1                  
1 39430U 13066Q   26186.29830758  .00002048  00000+0  31144-3 0  9999
2 39430  97.6469  25.6175 0129131  19.9587 340.6605 14.69521745672579
CUBEBUG-2 (LO-74)       
1 39440U 13066AA  26186.28247977  .00007070  00000+0  64944-3 0  9998
2 39440  97.8914 135.3391 0056356 329.1937  30.5979 14.93923546679690
FUNCUBE-1 (AO-73)       
1 39444U 13066AE  26185.88720520  .00011803  00000+0  72371-3 0  9999
2 39444  97.8283 157.7053 0037405 141.4256 218.9657 15.09718097682330
UWE-3                   
1 39446U 13066AG  26185.86074106  .00005022  00000+0  43020-3 0  9996
2 39446  97.8705 142.0564 0047342 260.6060  98.9807 14.97156601680225
UNISAT-6                
1 40012U 14033C   26186.21880997  .00003681  00000+0  39636-3 0  9992
2 40012  97.7902 338.6157 0045017  10.8555 349.3623 14.88337835648847
DUCHIFAT-1              
1 40021U 14033M   26185.71700957  .00213562  00000+0  18351-2 0  9994
2 40021  98.0425 247.3916 0000551 273.4953  86.6243 15.68680703658498
QB50P1                  
1 40025U 14033R   26185.74556599  .00013753  00000+0  66809-3 0  9994
2 40025  98.0964 198.1255 0009636 155.8537 204.3149 15.18544565655696
LILACSAT-2              
1 40908U 15049K   26186.26392541  .00024281  00000+0  40290-3 0  9999
2 40908  97.4623 223.7972 0007523 172.1339 188.0033 15.52087952598558
FOX-1A (AO-85)          
1 40967U 15058D   26185.72448079  .00003548  00000+0  31797-3 0  9997
2 40967  64.7733 224.4803 0131559  49.7898 311.4638 14.91048256116183
CAS-2T & KS-1Q          
1 41847U 16066G   26185.48597832  .00001682  00000+0  24203-3 0  9991
2 41847  98.3815 261.0243 0342746  77.1704 286.7545 14.44750691507291
RADFXSAT (FOX-1B)       
1 43017U 17073E   26185.60349923  .00010713  00000+0  46642-3 0  9997
2 43017  97.4674  52.4626 0148126 268.4592  89.9668 15.12956559468021
DIWATA-2B               
1 43678U 18084H   26186.30848691  .00003285  00000+0  26529-3 0  9995
2 43678  98.1209  23.3079 0013090 114.3859 245.8732 15.00534086418935
ES'HAIL 2               
1 43700U 18090A   26186.22538035  .00000158  00000+0  00000+0 0  9995
2 43700   0.0150  63.3589 0002300  79.6001 247.2082  1.00274018 27854
FOX-1CLIFF (AO-95)      
1 43770U 18099N   26186.09969103  .00021145  00000+0  79587-3 0  9999
2 43770  97.4372 246.2835 0006910 283.5806  76.4663 15.27119399415956
ITASAT                  
1 43786U 18099AE  26186.13530182  .00011495  00000+0  54667-3 0  9991
2 43786  97.4014 237.2902 0010725 291.2868  68.7221 15.19295486415636
JY1SAT (JO-97)          
1 43803U 18099AX  26185.70910216  .00030491  00000+0  91904-3 0  9995
2 43803  97.4116 248.6096 0005854 191.8532 168.2574 15.34248688416311
UWE-4                   
1 43880U 18111E   26186.26558620  .00052302  00000+0  10203-2 0  9991
2 43880  97.5846 115.5039 0004652 239.1139 120.9653 15.47332143413572
TIANYAN 01              
1 44881U 19093C   26186.28629073  .00001241  00000+0  14591-3 0  9997
2 44881  97.7521 258.0766 0014392  32.7829 327.4277 14.86549495354102
RS-44 & BREEZE-KM R/B   
1 44909U 19096E   26185.83044827  .00000024  00000+0  45233-4 0  9995
2 44909  82.5235 327.9805 0218586 103.1033 259.4562 12.79748994304604
SALSAT                  
1 46495U 20068K   26185.73936093  .00013612  00000+0  46989-3 0  9997
2 46495  97.8855 189.8756 0008222 233.3566 126.6918 15.30063013318049
XW-3 (CAS-9)            
1 50466U 21131B   26186.31175479  .00000639  00000+0  21080-3 0  9990
2 50466  98.4987 278.6038 0005083  55.4605 304.7063 14.41375141237728
GREENCUBE (IO-117)      
1 53109U 22080E   26186.23812327 -.00000003  00000+0  00000+0 0  9993
2 53109  70.1429 291.9681 0008934 285.8124  74.1550  6.42583233 93227
UMKA 1 (RS40S)          
1 57172U 23091G   26186.18664831  .00011046  00000+0  49909-3 0  9992
2 57172  97.5033 244.8159 0013842  61.7535 298.5096 15.21041890166743
CUBESX-HSE 3 (RS42S)    
1 57178U 23091N   26186.14243294  .00024130  00000+0  78789-3 0  9996
2 57178  97.5076 251.9612 0010729  37.1242 323.0739 15.31702832167179
MONITOR-3 (RS58S)       
1 57180U 23091Q   26186.27250770  .00017520  00000+0  63749-3 0  9995
2 57180  97.5068 249.8546 0012017  43.4976 316.7209 15.28232784167059
MONITOR-4 (RS57S)       
1 57182U 23091S   26186.11961537  .00019635  00000+0  71209-3 0  9999
2 57182  97.5062 249.6727 0012043  44.3387 315.8815 15.28315671167037
MONITOR-2 (RS39S)       
1 57184U 23091U   26186.29658521  .00008464  00000+0  40576-3 0  9997
2 57184  97.5058 244.4634 0012258  55.9264 304.3132 15.19092496166709
SVYATOBOR 1 (RS60S)     
1 57187U 23091X   26186.27948733  .00014674  00000+0  55621-3 0  9992
2 57187  97.5074 250.1992 0009763  38.3897 321.8035 15.26944983167077
VIZARD-METEO (RS38S)    
1 57189U 23091Z   26186.18957694  .00028026  00000+0  78316-3 0  9992
2 57189  97.5077 256.0420 0006645  18.5909 341.5576 15.36642481167453
POLYTECH-UNIVERSE 3 (R*)
1 57191U 23091AB  26186.18962022  .00008893  00000+0  42290-3 0  9998
2 57191  97.5031 243.8613 0016776  69.9759 290.3280 15.19299582166681
UTMN 2 (RS27S)          
1 57203U 23091AP  26186.28088452  .00020569  00000+0  65579-3 0  9998
2 57203  97.5072 253.7572 0007767  26.0626 334.1005 15.32528055167319
KUZGTU 1 (RS47S)        
1 57217U 23091AV  26186.28041833  .00019103  00000+0  65211-3 0  9990
2 57217  97.5048 250.9487 0011088  40.3862 319.8199 15.30309298167142
SONATE-2                
1 59112U 24043Q   26185.97773330  .00063960  00000+0  78271-3 0  9993
2 59112  97.5552 337.4841 0007050 138.7843 221.3947 15.60161084130665
MESAT1                  
1 60209U 24125G   26186.08295685  .00102783  00000+0  10198-2 0  9998
2 60209  97.2261  43.9963 0010849 144.0451 216.1541 15.65387255112361
OOV-CUBE (TUBSAT-30)    
1 60240U 24128F   26186.08717039  .00003194  00000+0  24825-3 0  9997
2 60240  61.9939 163.1528 0042380 137.7206 222.7166 15.02845362108809
COLIBRI-S (RS67S)       
1 61746U 24199M   26186.28984053  .00031520  00000+0  59170-3 0  9996
2 61746  97.2964  60.3151 0007660 198.3173 161.7803 15.48530920140211
HORS 3 (RS81S)          
1 61753U 24199U   26186.29401406  .00054789  00000+0  77487-3 0  9994
2 61753  97.2943  62.5086 0005803 188.5523 171.5634 15.56340153140378
HORS 4 (RS82S)          
1 61754U 24199V   26186.26151896  .00078290  00000+0  90663-3 0  9991
2 61754  97.2887  63.7993 0005781 177.9615 182.1668 15.61562088140469
SIT-2086                
1 61764U 24199AF  26186.29428340  .00056282  00000+0  85247-3 0  9995
2 61764  97.2900  62.9224 0007097 175.6370 184.4947 15.54450523137248
HYPERVIEW 1G (RS66S)    
1 61772U 24199AP  26186.19392876  .00282260  00000+0  13621-2 0  9990
2 61772  97.2814  66.8906 0007602 167.6955 192.4501 15.81804363137513
ALTAIR (RS65S)          
1 61779U 24199AW  26186.27386247  .00013303  00000+0  36434-3 0  9999
2 61779  97.3003  55.5070 0011075 235.3193 124.7009 15.37383772139895
ASRTU-1 (AO-123)        
1 61781U 24199AY  26186.27807970  .00012127  00000+0  34786-3 0  9994
2 61781  97.2974  54.7862 0012096 239.3152 120.6901 15.35950468136700
SAMSAT-IONOSPHERE (RS7*)
1 61784U 24199BB  26186.16689785  .00076009  00000+0  95714-3 0  9994
2 61784  97.2908  62.4949 0007909 194.5541 165.5490 15.59352421140362
RTU MIREA 1 (RS51S)     
1 61785U 24199BC  26186.27721516  .00087588  00000+0  94698-3 0  9990
2 61785  97.2897  63.5379 0008026 188.1395 171.9735 15.63285876137291
TEVEL2-4                
1 63213U 25052D   26186.17526082  .00032201  00000+0  93863-3 0  9992
2 63213  97.3873  82.6013 0004313  70.7177 289.4533 15.35300783 72877
TEVEL2-5                
1 63214U 25052E   26186.13264783  .00033647  00000+0  98634-3 0  9992
2 63214  97.3874  82.5017 0004358  71.7638 288.4080 15.35113750 72865
TEVEL2-6                
1 63215U 25052F   26186.14538739  .00033503  00000+0  98325-3 0  9997
2 63215  97.3878  82.4992 0004246  73.5451 286.6259 15.35078686 72866
TEVEL2-1                
1 63217U 25052H   26186.18078674  .00030960  00000+0  92519-3 0  9993
2 63217  97.3845  82.1371 0004779  79.9746 280.2036 15.34522825 72858
TEVEL2-3                
1 63218U 25052J   26186.17474933  .00032082  00000+0  95672-3 0  9991
2 63218  97.3854  82.1553 0004601  81.1194 279.0570 15.34582025 72854
TEVEL2-2                
1 63219U 25052K   26186.18098419  .00032287  00000+0  96427-3 0  9990
2 63219  97.3851  82.1402 0004820  80.0864 280.0923 15.34532608 72856
OTP-2                   
1 63235U 25052AB  26185.95387186  .00012315  00000+0  50685-3 0  9990
2 63235  97.3847  78.1191 0008316  98.5462 261.6718 15.24240704 72579
